[{"OBJECT_NAME":"STARLINK-5341","OBJECT_ID":"2023-010U","EPOCH":"2026-03-09T22:30:44.851104","MEAN_MOTION":14.98322209,"ECCENTRICITY":0.00023398,"INCLINATION":70.0024,"RA_OF_ASC_NODE":3.9794,"ARG_OF_PERICENTER":273.4777,"MEAN_ANOMALY":86.6114,"EPHEMERIS_TYPE":0,"CLASSIFICATION_TYPE":"U","NORAD_CAT_ID":55287,"ELEMENT_SET_NO":999,"REV_AT_EPOCH":17379,"BSTAR":0.00024384585,"MEAN_MOTION_DOT":2.817e-5,"MEAN_MOTION_DDOT":0},{"OBJECT_NAME":"CZ-4C R\/B","OBJECT_ID":"2021-079B","EPOCH":"2026-03-09T14:04:29.438112","MEAN_MOTION":15.08928015,"ECCENTRICITY":0.0108377,"INCLINATION":98.3883,"RA_OF_ASC_NODE":282.6111,"ARG_OF_PERICENTER":26.1585,"MEAN_ANOMALY":334.506,"EPHEMERIS_TYPE":0,"CLASSIFICATION_TYPE":"U","NORAD_CAT_ID":49123,"ELEMENT_SET_NO":999,"REV_AT_EPOCH":24640,"BSTAR":0.00023549,"MEAN_MOTION_DOT":4.178e-5,"MEAN_MOTION_DDOT":0}]
